{
  "type": "FeatureCollection",
  "features": [
    {
      "type": "Feature",
      "properties": {
        "norad_id": 67130,
        "name": "STARLINK-36194",
        "group": "last-30-days",
        "lat": -14.184843983901068,
        "lon": 84.61761226302485,
        "alt_km": 304.45818028253234,
        "timestamp": "2025-12-23T18:59:30.761215+00:00",
        "meta_object_name": "STARLINK-36194",
        "meta_object_id": "2025-299AE",
        "meta_epoch": "2025-12-23T06:00:00.999648",
        "meta_mean_motion": 15.91684428,
        "meta_eccentricity": 0.00018194,
        "meta_inclination": 42.998,
        "meta_ra_of_asc_node": 252.2391,
        "meta_arg_of_pericenter": 272.4953,
        "meta_mean_anomaly": 64.9382,
        "meta_ephemeris_type": 0,
        "meta_classification_type": "U",
        "meta_norad_cat_id": 67130,
        "meta_element_set_no": 999,
        "meta_rev_at_epoch": 250,
        "meta_bstar": -0.0059420602,
        "meta_mean_motion_dot": -0.01997082,
        "meta_mean_motion_ddot": 0.0010738931,
        "tle_line1": "1 67130U 25299AE  25357.25001157 -.01997082  10739-2 -59421-2 0  9990",
        "tle_line2": "2 67130  42.9980 252.2391 0001819 272.4953  64.9382 15.91684428  2503"
      },
      "geometry": {
        "type": "Point",
        "coordinates": [
          84.61761226302485,
          -14.184843983901068
        ]
      }
    },
    {
      "type": "Feature",
      "properties": {
        "norad_id": 67131,
        "name": "ZIYUAN 3-04 (ZY 3-04)",
        "group": "last-30-days",
        "lat": -72.33196503812988,
        "lon": 96.24867748816021,
        "alt_km": 510.6865711927858,
        "timestamp": "2025-12-23T18:59:30.761224+00:00",
        "meta_object_name": "ZIYUAN 3-04 (ZY 3-04)",
        "meta_object_id": "2025-300A",
        "meta_epoch": "2025-12-21T18:22:34.187808",
        "meta_mean_motion": 15.21179479,
        "meta_eccentricity": 0.00027623,
        "meta_inclination": 97.4922,
        "meta_ra_of_asc_node": 69.8294,
        "meta_arg_of_pericenter": 167.6924,
        "meta_mean_anomaly": 192.438,
        "meta_ephemeris_type": 0,
        "meta_classification_type": "U",
        "meta_norad_cat_id": 67131,
        "meta_element_set_no": 999,
        "meta_rev_at_epoch": 86,
        "meta_bstar": 6.5769783e-05,
        "meta_mean_motion_dot": 1.396e-05,
        "meta_mean_motion_ddot": 0,
        "tle_line1": "1 67131U 25300A   25355.76567347  .00001396  00000+0  65770-4 0  9990",
        "tle_line2": "2 67131  97.4922  69.8294 0002762 167.6924 192.4380 15.21179479   860"
      },
      "geometry": {
        "type": "Point",
        "coordinates": [
          96.24867748816021,
          -72.33196503812988
        ]
      }
    },
    {
      "type": "Feature",
      "properties": {
        "norad_id": 67132,
        "name": "CZ-4B R/B",
        "group": "last-30-days",
        "lat": -15.214358852608715,
        "lon": 74.51385670398246,
        "alt_km": 263.90086298839014,
        "timestamp": "2025-12-23T18:59:30.761234+00:00",
        "meta_object_name": "CZ-4B R/B",
        "meta_object_id": "2025-300B",
        "meta_epoch": "2025-12-18T16:13:04.609056",
        "meta_mean_motion": 15.63831828,
        "meta_eccentricity": 0.01741973,
        "meta_inclination": 97.5563,
        "meta_ra_of_asc_node": 66.966,
        "meta_arg_of_pericenter": 9.3582,
        "meta_mean_anomaly": 351.0851,
        "meta_ephemeris_type": 0,
        "meta_classification_type": "U",
        "meta_norad_cat_id": 67132,
        "meta_element_set_no": 999,
        "meta_rev_at_epoch": 40,
        "meta_bstar": 0.00019566238,
        "meta_mean_motion_dot": 0.00040543,
        "meta_mean_motion_ddot": 2.652968e-06,
        "tle_line1": "1 67132U 25300B   25352.67574779  .00040543  26530-5  19566-3 0  9995",
        "tle_line2": "2 67132  97.5563  66.9660 0174197   9.3582 351.0851 15.63831828   407"
      },
      "geometry": {
        "type": "Point",
        "coordinates": [
          74.51385670398246,
          -15.214358852608715
        ]
      }
    },
    {
      "type": "Feature",
      "properties": {
        "norad_id": 67160,
        "name": "GALILEO A",
        "group": "last-30-days",
        "lat": -54.06732409127685,
        "lon": 23.993171865777498,
        "alt_km": 22929.8742027713,
        "timestamp": "2025-12-23T18:59:30.761244+00:00",
        "meta_object_name": "GALILEO A",
        "meta_object_id": "2025-302A",
        "meta_epoch": "2025-12-18T03:30:19.486368",
        "meta_mean_motion": 1.72906186,
        "meta_eccentricity": 0.00084238,
        "meta_inclination": 54.2406,
        "meta_ra_of_asc_node": 107.2544,
        "meta_arg_of_pericenter": 237.6458,
        "meta_mean_anomaly": 122.2317,
        "meta_ephemeris_type": 0,
        "meta_classification_type": "U",
        "meta_norad_cat_id": 67160,
        "meta_element_set_no": 999,
        "meta_rev_at_epoch": 2,
        "meta_bstar": 0,
        "meta_mean_motion_dot": -7e-08,
        "meta_mean_motion_ddot": 0,
        "tle_line1": "1 67160U 25302A   25352.14605887 -.00000007  00000+0  00000+0 0  9994",
        "tle_line2": "2 67160  54.2406 107.2544 0008423 237.6458 122.2317  1.72906186    28"
      },
      "geometry": {
        "type": "Point",
        "coordinates": [
          23.993171865777498,
          -54.06732409127685
        ]
      }
    },
    {
      "type": "Feature",
      "properties": {
        "norad_id": 67161,
        "name": "GALILEO B",
        "group": "last-30-days",
        "lat": -53.879641875762914,
        "lon": 26.503075150727177,
        "alt_km": 22929.704625995033,
        "timestamp": "2025-12-23T18:59:30.761255+00:00",
        "meta_object_name": "GALILEO B",
        "meta_object_id": "2025-302B",
        "meta_epoch": "2025-12-19T07:14:53.290752",
        "meta_mean_motion": 1.72972192,
        "meta_eccentricity": 0.00045866,
        "meta_inclination": 54.2272,
        "meta_ra_of_asc_node": 107.1916,
        "meta_arg_of_pericenter": 255.0301,
        "meta_mean_anomaly": 104.8802,
        "meta_ephemeris_type": 0,
        "meta_classification_type": "U",
        "meta_norad_cat_id": 67161,
        "meta_element_set_no": 999,
        "meta_rev_at_epoch": 5,
        "meta_bstar": 0,
        "meta_mean_motion_dot": -5e-08,
        "meta_mean_motion_ddot": 0,
        "tle_line1": "1 67161U 25302B   25353.30200568 -.00000005  00000+0  00000+0 0  9999",
        "tle_line2": "2 67161  54.2272 107.1916 0004586 255.0301 104.8802  1.72972192    57"
      },
      "geometry": {
        "type": "Point",
        "coordinates": [
          26.503075150727177,
          -53.879641875762914
        ]
      }
    },
    {
      "type": "Feature",
      "properties": {
        "norad_id": 67162,
        "name": "ARIANE 6 R/B",
        "group": "last-30-days",
        "lat": -53.262782453441986,
        "lon": 32.534653621052875,
        "alt_km": 22924.75053033591,
        "timestamp": "2025-12-23T18:59:30.761265+00:00",
        "meta_object_name": "ARIANE 6 R/B",
        "meta_object_id": "2025-302C",
        "meta_epoch": "2025-12-19T07:12:31.071168",
        "meta_mean_motion": 1.73130298,
        "meta_eccentricity": 2.559e-05,
        "meta_inclination": 54.2437,
        "meta_ra_of_asc_node": 107.222,
        "meta_arg_of_pericenter": 160.7324,
        "meta_mean_anomaly": 199.2296,
        "meta_ephemeris_type": 0,
        "meta_classification_type": "U",
        "meta_norad_cat_id": 67162,
        "meta_element_set_no": 999,
        "meta_rev_at_epoch": 8,
        "meta_bstar": 0,
        "meta_mean_motion_dot": -5e-08,
        "meta_mean_motion_ddot": 0,
        "tle_line1": "1 67162U 25302C   25353.30035962 -.00000005  00000+0  00000+0 0  9994",
        "tle_line2": "2 67162  54.2437 107.2220 0000255 160.7324 199.2296  1.73130298    88"
      },
      "geometry": {
        "type": "Point",
        "coordinates": [
          32.534653621052875,
          -53.262782453441986
        ]
      }
    },
    {
      "type": "Feature",
      "properties": {
        "norad_id": 67219,
        "name": "DISKSAT A",
        "group": "last-30-days",
        "lat": 23.13498095380555,
        "lon": 86.74865137620218,
        "alt_km": 548.0437296373975,
        "timestamp": "2025-12-23T18:59:30.761276+00:00",
        "meta_object_name": "DISKSAT A",
        "meta_object_id": "2025-305A",
        "meta_epoch": "2025-12-20T09:08:30.149664",
        "meta_mean_motion": 15.05762698,
        "meta_eccentricity": 0.0003912,
        "meta_inclination": 45.0057,
        "meta_ra_of_asc_node": 310.0654,
        "meta_arg_of_pericenter": 276.1097,
        "meta_mean_anomaly": 83.9332,
        "meta_ephemeris_type": 0,
        "meta_classification_type": "U",
        "meta_norad_cat_id": 67219,
        "meta_element_set_no": 999,
        "meta_rev_at_epoch": 33,
        "meta_bstar": 5.0887e-05,
        "meta_mean_motion_dot": 5.1e-06,
        "meta_mean_motion_ddot": 0,
        "tle_line1": "1 67219U 25305A   25354.38090451  .00000510  00000+0  50887-4 0  9996",
        "tle_line2": "2 67219  45.0057 310.0654 0003912 276.1097  83.9332 15.05762698   337"
      },
      "geometry": {
        "type": "Point",
        "coordinates": [
          86.74865137620218,
          23.13498095380555
        ]
      }
    }
  ]
}